[{"OBJECT_NAME":"STARLINK-33550","OBJECT_ID":"2024-237U","EPOCH":"2026-03-09T10:26:44.526912","MEAN_MOTION":15.27587061,"ECCENTRICITY":6.952e-5,"INCLINATION":42.996,"RA_OF_ASC_NODE":217.7377,"ARG_OF_PERICENTER":245.5691,"MEAN_ANOMALY":114.5088,"EPHEMERIS_TYPE":0,"CLASSIFICATION_TYPE":"U","NORAD_CAT_ID":62285,"ELEMENT_SET_NO":999,"REV_AT_EPOCH":7115,"BSTAR":0.00098534271,"MEAN_MOTION_DOT":0.00026957,"MEAN_MOTION_DDOT":0},{"OBJECT_NAME":"FENGYUN 1C DEB","OBJECT_ID":"1999-025BCE","EPOCH":"2026-03-09T20:27:54.391104","MEAN_MOTION":15.38307136,"ECCENTRICITY":0.00917966,"INCLINATION":98.5506,"RA_OF_ASC_NODE":34.4945,"ARG_OF_PERICENTER":39.9911,"MEAN_ANOMALY":320.8043,"EPHEMERIS_TYPE":0,"CLASSIFICATION_TYPE":"U","NORAD_CAT_ID":30988,"ELEMENT_SET_NO":999,"REV_AT_EPOCH":875,"BSTAR":0.0023570074,"MEAN_MOTION_DOT":0.00103953,"MEAN_MOTION_DDOT":0}]
